OBJECT_NAME,OBJECT_ID,EPOCH,MEAN_MOTION,ECCENTRICITY,INCLINATION,RA_OF_ASC_NODE,ARG_OF_PERICENTER,MEAN_ANOMALY,EPHEMERIS_TYPE,CLASSIFICATION_TYPE,NORAD_CAT_ID,ELEMENT_SET_NO,REV_AT_EPOCH,BSTAR,MEAN_MOTION_DOT,MEAN_MOTION_DDOT
STARLINK-30996,2024-038A,2026-07-16T12:56:35.814624,15.27577465,.0000884,43.0018,19.3818,276.9037,83.1714,0,U,59023,999,13583,.71906E-4,.1717E-4,0
STARLINK-31006,2024-038B,2026-07-16T17:11:22.131168,15.27575773,.0002396,43.0074,327.9406,266.3096,93.7481,0,U,59024,999,13507,.73999E-4,.1774E-4,0
STARLINK-31178,2024-038C,2026-07-16T13:11:23.749152,15.27573892,.0001029,43.0031,19.4576,271.3764,88.6970,0,U,59025,999,13435,.19978E-4,.288E-5,0
STARLINK-30863,2024-038E,2026-07-16T13:42:51.553728,15.27584050,.0001225,43.0039,19.6067,268.1308,91.9404,0,U,59027,999,13435,.12456E-4,.81E-6,0
STARLINK-31206,2024-038F,2026-07-16T08:31:30.637344,15.27578122,.0001423,43.0041,315.3858,278.0341,82.0349,0,U,59028,999,13520,.19238E-4,.267E-5,0
STARLINK-31224,2024-038G,2026-07-16T12:30:41.312736,15.27577116,.0001134,43.0013,19.2423,272.1729,87.8993,0,U,59029,999,13446,.46062E-4,.1006E-4,0
STARLINK-31186,2024-038H,2026-07-16T13:16:57.411264,15.27567109,.0001177,43.0026,19.4825,251.2562,108.8162,0,U,59030,999,13446,-.32227E-4,-.1148E-4,0
STARLINK-31211,2024-038J,2026-07-16T13:57:26.353728,15.27559641,.000125,43.0028,18.8334,264.5789,95.4920,0,U,59031,999,13436,.94309E-4,.2332E-4,0
STARLINK-30862,2024-038K,2026-07-16T19:48:25.134624,15.27577936,.0002669,43.0039,6.8876,271.5678,88.4868,0,U,59032,999,13452,.50124E-4,.1117E-4,0
STARLINK-31210,2024-038L,2026-07-16T19:17:35.613024,15.27593831,.0001149,43.0036,14.4791,265.1695,94.9026,0,U,59033,999,13460,.66028E-4,.1556E-4,0
STARLINK-31231,2024-038M,2026-07-16T19:12:03.832704,15.27579679,.0000999,43.0043,14.4470,255.9023,104.1718,0,U,59034,999,13443,.20285E-4,.296E-5,0
STARLINK-31207,2024-038N,2026-07-16T20:40:40.041120,15.27569151,.0001123,43.0035,14.0507,261.3898,98.6826,0,U,59035,999,13461,.97251E-4,.2414E-4,0
STARLINK-31217,2024-038P,2026-07-16T15:40:08.303232,15.27581506,.0001443,43.0017,280.9020,273.9766,86.0921,0,U,59036,999,13566,.63541E-4,.1487E-4,0
STARLINK-31208,2024-038Q,2026-07-16T12:14:13.943904,15.27583377,.0001202,43.0017,19.9883,306.0879,53.9861,0,U,59037,999,13451,.53977E-4,.1224E-4,0
STARLINK-31235,2024-038R,2026-07-16T12:46:11.554752,15.27575954,.000078,43.0049,15.8764,269.1036,90.9726,0,U,59038,999,13450,.20861E-6,-.256E-5,0
STARLINK-31220,2024-038S,2026-07-16T12:49:11.552736,15.27576273,.0000844,43.0028,19.3380,281.6981,78.3776,0,U,59039,999,13446,.52366E-5,-.118E-5,0
STARLINK-31225,2024-038T,2026-07-16T12:25:49.665216,15.27577982,.0001283,43.0004,15.7321,270.0405,90.0299,0,U,59040,999,13439,.55678E-4,.127E-4,0
STARLINK-31240,2024-038U,2026-07-16T13:21:21.650112,15.27568413,.0001423,43.0041,16.0624,272.9918,87.0771,0,U,59041,999,13450,.16575E-4,.194E-5,0
STARLINK-31202,2024-038V,2026-07-16T13:55:40.344384,15.29935392,.0004349,43.0023,14.5296,324.7972,35.2593,0,U,59042,999,13458,.64103E-3,.18746E-3,0
STARLINK-31234,2024-038W,2026-07-16T13:12:06.048000,15.27572860,.0001266,43.0045,16.0136,276.2501,83.8206,0,U,59043,999,13439,.3068E-4,.582E-5,0
STARLINK-31153,2024-038X,2026-07-16T20:31:25.353120,15.27572992,.0001,43.0024,13.9983,249.1877,110.8867,0,U,59044,999,13444,.1068E-4,.32E-6,0
STARLINK-31241,2024-038Y,2026-07-16T13:17:38.715648,15.27578512,.0001477,43.0057,16.0420,274.2140,85.8542,0,U,59045,999,13456,.1542E-4,.162E-5,0
STARLINK-31205,2024-038Z,2026-07-16T19:23:09.903264,15.27580167,.0000985,43.0042,14.5053,266.8394,93.2345,0,U,59046,999,13454,.60199E-4,.1395E-4,0
STARLINK-31265,2024-041A,2026-07-16T15:30:36.107136,15.27585407,.0001307,43.0015,302.4359,270.6886,89.3816,0,U,59074,999,13399,.76309E-4,.1839E-4,0
STARLINK-31276,2024-041B,2026-07-16T17:52:38.993664,15.27590560,.0001347,43.0029,301.4596,250.4292,109.6414,0,U,59075,999,13406,.82426E-4,.2007E-4,0
STARLINK-31259,2024-041C,2026-07-16T06:59:07.501920,15.27573383,.0001437,43.0036,304.0737,258.6988,101.3702,0,U,59076,999,13289,.33084E-4,.648E-5,0
STARLINK-31281,2024-041D,2026-07-16T18:03:46.279008,15.27576150,.0001189,43.0021,301.5182,243.9194,116.1536,0,U,59077,999,13406,.34221E-4,.68E-5,0
STARLINK-31274,2024-041E,2026-07-16T07:47:13.803648,15.27579014,.0001102,43.0008,304.3176,269.0230,91.0495,0,U,59078,999,13394,.2551E-4,.44E-5,0
STARLINK-31257,2024-041F,2026-07-16T08:57:19.824768,15.27581572,.0001435,43.0025,303.8277,261.2844,98.7845,0,U,59079,999,13395,.3652E-4,.743E-5,0
STARLINK-31292,2024-041H,2026-07-16T18:09:19.497024,15.27574698,.0001242,43.0024,301.5473,268.0372,92.0337,0,U,59081,999,13400,.47678E-4,.105E-4,0
