STARLINK-30996          
1 59023U 24038A   26197.53930341  .00001717  00000+0  71906-4 0  9991
2 59023  43.0018  19.3818 0000884 276.9037  83.1714 15.27577465135834
STARLINK-31006          
1 59024U 24038B   26197.71622837  .00001774  00000+0  73999-4 0  9997
2 59024  43.0074 327.9406 0002396 266.3096  93.7481 15.27575773135070
STARLINK-31178          
1 59025U 24038C   26197.54958043  .00000288  00000+0  19978-4 0  9996
2 59025  43.0031  19.4576 0001029 271.3764  88.6970 15.27573892134351
STARLINK-30863          
1 59027U 24038E   26197.57143002  .00000081  00000+0  12456-4 0  9997
2 59027  43.0039  19.6067 0001225 268.1308  91.9404 15.27584050134351
STARLINK-31206          
1 59028U 24038F   26197.35521571  .00000267  00000+0  19238-4 0  9996
2 59028  43.0041 315.3858 0001423 278.0341  82.0349 15.27578122135203
STARLINK-31224          
1 59029U 24038G   26197.52131149  .00001006  00000+0  46062-4 0  9991
2 59029  43.0013  19.2423 0001134 272.1729  87.8993 15.27577116134462
STARLINK-31186          
1 59030U 24038H   26197.55344226 -.00001148  00000+0 -32227-4 0  9995
2 59030  43.0026  19.4825 0001177 251.2562 108.8162 15.27567109134469
STARLINK-31211          
1 59031U 24038J   26197.58155502  .00002332  00000+0  94309-4 0  9999
2 59031  43.0028  18.8334 0001250 264.5789  95.4920 15.27559641134364
STARLINK-30862          
1 59032U 24038K   26197.82529091  .00001117  00000+0  50124-4 0  9992
2 59032  43.0039   6.8876 0002669 271.5678  88.4868 15.27577936134523
STARLINK-31210          
1 59033U 24038L   26197.80388441  .00001556  00000+0  66028-4 0  9990
2 59033  43.0036  14.4791 0001149 265.1695  94.9026 15.27593831134601
STARLINK-31231          
1 59034U 24038M   26197.80004436  .00000296  00000+0  20285-4 0  9995
2 59034  43.0043  14.4470 0000999 255.9023 104.1718 15.27579679134435
STARLINK-31207          
1 59035U 24038N   26197.86157455  .00002414  00000+0  97251-4 0  9993
2 59035  43.0035  14.0507 0001123 261.3898  98.6826 15.27569151134616
STARLINK-31217          
1 59036U 24038P   26197.65287388  .00001487  00000+0  63541-4 0  9994
2 59036  43.0017 280.9020 0001443 273.9766  86.0921 15.27581506135660
STARLINK-31208          
1 59037U 24038Q   26197.50988361  .00001224  00000+0  53977-4 0  9999
2 59037  43.0017  19.9883 0001202 306.0879  53.9861 15.27583377134511
STARLINK-31235          
1 59038U 24038R   26197.53207818 -.00000256  00000+0  20861-6 0  9997
2 59038  43.0049  15.8764 0000780 269.1036  90.9726 15.27575954134506
STARLINK-31220          
1 59039U 24038S   26197.53416149 -.00000118  00000+0  52366-5 0  9998
2 59039  43.0028  19.3380 0000844 281.6981  78.3776 15.27576273134461
STARLINK-31225          
1 59040U 24038T   26197.51793594  .00001270  00000+0  55678-4 0  9997
2 59040  43.0004  15.7321 0001283 270.0405  90.0299 15.27577982134394
STARLINK-31240          
1 59041U 24038U   26197.55650058  .00000194  00000+0  16575-4 0  9996
2 59041  43.0041  16.0624 0001423 272.9918  87.0771 15.27568413134505
STARLINK-31202          
1 59042U 24038V   26197.58032806  .00018746  00000+0  64103-3 0  9996
2 59042  43.0023  14.5296 0004349 324.7972  35.2593 15.29935392134581
STARLINK-31234          
1 59043U 24038W   26197.55007000  .00000582  00000+0  30680-4 0  9995
2 59043  43.0045  16.0136 0001266 276.2501  83.8206 15.27572860134394
STARLINK-31153          
1 59044U 24038X   26197.85515455  .00000032  00000+0  10680-4 0  9995
2 59044  43.0024  13.9983 0001000 249.1877 110.8867 15.27572992134445
STARLINK-31241          
1 59045U 24038Y   26197.55392032  .00000162  00000+0  15420-4 0  9998
2 59045  43.0057  16.0420 0001477 274.2140  85.8542 15.27578512134560
STARLINK-31205          
1 59046U 24038Z   26197.80775351  .00001395  00000+0  60199-4 0  9998
2 59046  43.0042  14.5053 0000985 266.8394  93.2345 15.27580167134542
STARLINK-31265          
1 59074U 24041A   26197.64625124  .00001839  00000+0  76309-4 0  9990
2 59074  43.0015 302.4359 0001307 270.6886  89.3816 15.27585407133998
STARLINK-31276          
1 59075U 24041B   26197.74489576  .00002007  00000+0  82426-4 0  9996
2 59075  43.0029 301.4596 0001347 250.4292 109.6414 15.27590560134062
STARLINK-31259          
1 59076U 24041C   26197.29105905  .00000648  00000+0  33084-4 0  9993
2 59076  43.0036 304.0737 0001437 258.6988 101.3702 15.27573383132891
STARLINK-31281          
1 59077U 24041D   26197.75261897  .00000680  00000+0  34221-4 0  9998
2 59077  43.0021 301.5182 0001189 243.9194 116.1536 15.27576150134067
STARLINK-31274          
1 59078U 24041E   26197.32446532  .00000440  00000+0  25510-4 0  9998
2 59078  43.0008 304.3176 0001102 269.0230  91.0495 15.27579014133945
STARLINK-31257          
1 59079U 24041F   26197.37314612  .00000743  00000+0  36520-4 0  9996
2 59079  43.0025 303.8277 0001435 261.2844  98.7845 15.27581572133951
STARLINK-31292          
1 59081U 24041H   26197.75647566  .00001050  00000+0  47678-4 0  9996
2 59081  43.0024 301.5473 0001242 268.0372  92.0337 15.27574698134004
